[{"OBJECT_NAME":"STARLINK-3858","OBJECT_ID":"2022-051W","EPOCH":"2026-03-09T10:30:19.250784","MEAN_MOTION":15.088451,"ECCENTRICITY":0.00014257,"INCLINATION":53.2167,"RA_OF_ASC_NODE":129.9136,"ARG_OF_PERICENTER":85.6169,"MEAN_ANOMALY":274.4986,"EPHEMERIS_TYPE":0,"CLASSIFICATION_TYPE":"U","NORAD_CAT_ID":52553,"ELEMENT_SET_NO":999,"REV_AT_EPOCH":21141,"BSTAR":1.8734813e-5,"MEAN_MOTION_DOT":1.0e-7,"MEAN_MOTION_DDOT":0},{"OBJECT_NAME":"ICEYE-X67","OBJECT_ID":"2025-248K","EPOCH":"2026-03-09T22:00:01.999584","MEAN_MOTION":15.09405994,"ECCENTRICITY":0.00063951,"INCLINATION":45.4045,"RA_OF_ASC_NODE":295.7576,"ARG_OF_PERICENTER":209.4534,"MEAN_ANOMALY":51.9892,"EPHEMERIS_TYPE":0,"CLASSIFICATION_TYPE":"U","NORAD_CAT_ID":66302,"ELEMENT_SET_NO":999,"REV_AT_EPOCH":578,"BSTAR":-0.000164009,"MEAN_MOTION_DOT":-2.917e-5,"MEAN_MOTION_DDOT":0}]
